[{"OBJECT_NAME":"MCUBED-2","OBJECT_ID":"2013-072L","EPOCH":"2026-03-09T22:49:27.284736","MEAN_MOTION":15.59782731,"ECCENTRICITY":0.0052286,"INCLINATION":120.4818,"RA_OF_ASC_NODE":108.7467,"ARG_OF_PERICENTER":309.4194,"MEAN_ANOMALY":50.2277,"EPHEMERIS_TYPE":0,"CLASSIFICATION_TYPE":"U","NORAD_CAT_ID":39472,"ELEMENT_SET_NO":999,"REV_AT_EPOCH":10128,"BSTAR":0.0011197913,"MEAN_MOTION_DOT":0.00097876,"MEAN_MOTION_DDOT":0},{"OBJECT_NAME":"HAWK-3C","OBJECT_ID":"2021-059BX","EPOCH":"2026-03-09T11:39:18.012960","MEAN_MOTION":15.61557369,"ECCENTRICITY":0.00055667,"INCLINATION":97.687,"RA_OF_ASC_NODE":261.8501,"ARG_OF_PERICENTER":340.3597,"MEAN_ANOMALY":19.7445,"EPHEMERIS_TYPE":0,"CLASSIFICATION_TYPE":"U","NORAD_CAT_ID":48948,"ELEMENT_SET_NO":999,"REV_AT_EPOCH":26225,"BSTAR":0.00044158538,"MEAN_MOTION_DOT":0.00037876,"MEAN_MOTION_DDOT":0}]
